[
    {
        "CCSDS_OMM_VERS": "3.0",
        "COMMENT": "GENERATED VIA SPACE-TRACK.ORG API",
        "CREATION_DATE": "2025-03-02T22:56:18",
        "ORIGINATOR": "18 SPCS",
        "OBJECT_NAME": "BEIDOU 3M19",
        "OBJECT_ID": "2019-090A",
        "CENTER_NAME": "EARTH",
        "REF_FRAME": "TEME",
        "TIME_SYSTEM": "UTC",
        "MEAN_ELEMENT_THEORY": "SGP4",
        "EPOCH": "2025-03-02T14:33:05.731776",
        "MEAN_MOTION": "1.86231325",
        "ECCENTRICITY": "0.00200600",
        "INCLINATION": "56.1435",
        "RA_OF_ASC_NODE": "78.4282",
        "ARG_OF_PERICENTER": "285.3774",
        "MEAN_ANOMALY": "157.4639",
        "EPHEMERIS_TYPE": "0",
        "CLASSIFICATION_TYPE": "U",
        "NORAD_CAT_ID": "44864",
        "ELEMENT_SET_NO": "999",
        "REV_AT_EPOCH": "3544",
        "BSTAR": "0.00000000000000",
        "MEAN_MOTION_DOT": "0.00000006",
        "MEAN_MOTION_DDOT": "0.0000000000000",
        "SEMIMAJOR_AXIS": "27906.156",
        "PERIOD": "773.232",
        "APOAPSIS": "21584.001",
        "PERIAPSIS": "21472.041",
        "OBJECT_TYPE": "PAYLOAD",
        "RCS_SIZE": "LARGE",
        "COUNTRY_CODE": "PRC",
        "LAUNCH_DATE": "2019-12-16",
        "SITE": "XSC",
        "DECAY_DATE": null,
        "FILE": "4657413",
        "GP_ID": "282106998",
        "TLE_LINE0": "0 BEIDOU 3M19",
        "TLE_LINE1": "1 44864U 19090A   25061.60631634  .00000006  00000-0  00000+0 0  9993",
        "TLE_LINE2": "2 44864  56.1435  78.4282 0020060 285.3774 157.4639  1.86231325 35449"
    }
]